ORBCOMM FM24            
1 25478U 98053D   24118.19152218  .00003886  00000+0  13840-2 0  9998
2 25478  45.0074  77.6975 0002836 309.0024  51.0570 14.35593803337895
ORBCOMM FM25            
1 25479U 98053E   24117.87924186  .00003812  00000+0  13591-2 0  9996
2 25479  45.0069  77.4142 0005397 317.5925  42.4505 14.35568163337863
ORBCOMM FM26            
1 25480U 98053F   24118.15899234  .00003323  00000+0  12041-2 0  9991
2 25480  45.0066  70.1561 0007156 337.9834  22.0705 14.35026941337945
ORBCOMM FM27            
1 25481U 98053G   24117.93681603  .00003924  00000+0  13983-2 0  9999
2 25481  45.0050  77.4076 0001421 318.7298  41.3442 14.35554185337803
ORBCOMM FM28            
1 25482U 98053H   24117.44048796  .00003019  00000+0  10775-2 0  9997
2 25482  45.0071  18.2663 0004606   6.8021 353.2888 14.35994014338404
ORBCOMM FM30            
1 25980U 99065A   24118.12219364  .00003539  00000+0  12757-2 0  9990
2 25980  45.0307 255.8470 0005263  96.1528 263.9919 14.35172516275168
ORBCOMM FM31            
1 25981U 99065B   24117.67007748  .00002893  00000+0  10518-2 0  9996
2 25981  45.0221 251.6814 0003094 131.9545 228.1567 14.35169579274129
ORBCOMM FM32            
1 25982U 99065C   24117.71132847  .00003093  00000+0  11443-2 0  9992
2 25982  45.0149 265.1929 0005597 122.1818 237.9572 14.34144461274767
