<?xml version="1.0" encoding="UTF-8"?>
<ndm xmlns:xsi="http://www.w3.org/2001/XMLSchema-instance" xsi:noNamespaceSchemaLocation="https://sanaregistry.org/r/ndmxml_unqualified/ndmxml-2.0.0-master-2.0.xsd">
<omm id="CCSDS_OMM_VERS" version="2.0">
<header><CREATION_DATE/><ORIGINATOR/></header><body><segment><metadata><OBJECT_NAME>ORBCOMM FM24</OBJECT_NAME><OBJECT_ID>1998-053D</OBJECT_ID><CENTER_NAME>EARTH</CENTER_NAME><REF_FRAME>TEME</REF_FRAME><TIME_SYSTEM>UTC</TIME_SYSTEM><MEAN_ELEMENT_THEORY>SGP4</MEAN_ELEMENT_THEORY></metadata><data><meanElements><EPOCH>2024-04-27T04:35:47.516352</EPOCH><MEAN_MOTION>14.35593803</MEAN_MOTION><ECCENTRICITY>.0002836</ECCENTRICITY><INCLINATION>45.0074</INCLINATION><RA_OF_ASC_NODE>77.6975</RA_OF_ASC_NODE><ARG_OF_PERICENTER>309.0024</ARG_OF_PERICENTER><MEAN_ANOMALY>51.0570</MEAN_ANOMALY></meanElements><tleParameters><EPHEMERIS_TYPE>0</EPHEMERIS_TYPE><CLASSIFICATION_TYPE>U</CLASSIFICATION_TYPE><NORAD_CAT_ID>25478</NORAD_CAT_ID><ELEMENT_SET_NO>999</ELEMENT_SET_NO><REV_AT_EPOCH>33789</REV_AT_EPOCH><BSTAR>.1384E-2</BSTAR><MEAN_MOTION_DOT>.3886E-4</MEAN_MOTION_DOT><MEAN_MOTION_DDOT>0</MEAN_MOTION_DDOT></tleParameters></data></segment></body></omm>
<omm id="CCSDS_OMM_VERS" version="2.0">
<header><CREATION_DATE/><ORIGINATOR/></header><body><segment><metadata><OBJECT_NAME>ORBCOMM FM25</OBJECT_NAME><OBJECT_ID>1998-053E</OBJECT_ID><CENTER_NAME>EARTH</CENTER_NAME><REF_FRAME>TEME</REF_FRAME><TIME_SYSTEM>UTC</TIME_SYSTEM><MEAN_ELEMENT_THEORY>SGP4</MEAN_ELEMENT_THEORY></metadata><data><meanElements><EPOCH>2024-04-26T21:06:06.496704</EPOCH><MEAN_MOTION>14.35568163</MEAN_MOTION><ECCENTRICITY>.0005397</ECCENTRICITY><INCLINATION>45.0069</INCLINATION><RA_OF_ASC_NODE>77.4142</RA_OF_ASC_NODE><ARG_OF_PERICENTER>317.5925</ARG_OF_PERICENTER><MEAN_ANOMALY>42.4505</MEAN_ANOMALY></meanElements><tleParameters><EPHEMERIS_TYPE>0</EPHEMERIS_TYPE><CLASSIFICATION_TYPE>U</CLASSIFICATION_TYPE><NORAD_CAT_ID>25479</NORAD_CAT_ID><ELEMENT_SET_NO>999</ELEMENT_SET_NO><REV_AT_EPOCH>33786</REV_AT_EPOCH><BSTAR>.13591E-2</BSTAR><MEAN_MOTION_DOT>.3812E-4</MEAN_MOTION_DOT><MEAN_MOTION_DDOT>0</MEAN_MOTION_DDOT></tleParameters></data></segment></body></omm>
<omm id="CCSDS_OMM_VERS" version="2.0">
<header><CREATION_DATE/><ORIGINATOR/></header><body><segment><metadata><OBJECT_NAME>ORBCOMM FM26</OBJECT_NAME><OBJECT_ID>1998-053F</OBJECT_ID><CENTER_NAME>EARTH</CENTER_NAME><REF_FRAME>TEME</REF_FRAME><TIME_SYSTEM>UTC</TIME_SYSTEM><MEAN_ELEMENT_THEORY>SGP4</MEAN_ELEMENT_THEORY></metadata><data><meanElements><EPOCH>2024-04-27T03:48:56.938176</EPOCH><MEAN_MOTION>14.35026941</MEAN_MOTION><ECCENTRICITY>.0007156</ECCENTRICITY><INCLINATION>45.0066</INCLINATION><RA_OF_ASC_NODE>70.1561</RA_OF_ASC_NODE><ARG_OF_PERICENTER>337.9834</ARG_OF_PERICENTER><MEAN_ANOMALY>22.0705</MEAN_ANOMALY></meanElements><tleParameters><EPHEMERIS_TYPE>0</EPHEMERIS_TYPE><CLASSIFICATION_TYPE>U</CLASSIFICATION_TYPE><NORAD_CAT_ID>25480</NORAD_CAT_ID><ELEMENT_SET_NO>999</ELEMENT_SET_NO><REV_AT_EPOCH>33794</REV_AT_EPOCH><BSTAR>.12041E-2</BSTAR><MEAN_MOTION_DOT>.3323E-4</MEAN_MOTION_DOT><MEAN_MOTION_DDOT>0</MEAN_MOTION_DDOT></tleParameters></data></segment></body></omm>
<omm id="CCSDS_OMM_VERS" version="2.0">
<header><CREATION_DATE/><ORIGINATOR/></header><body><segment><metadata><OBJECT_NAME>ORBCOMM FM27</OBJECT_NAME><OBJECT_ID>1998-053G</OBJECT_ID><CENTER_NAME>EARTH</CENTER_NAME><REF_FRAME>TEME</REF_FRAME><TIME_SYSTEM>UTC</TIME_SYSTEM><MEAN_ELEMENT_THEORY>SGP4</MEAN_ELEMENT_THEORY></metadata><data><meanElements><EPOCH>2024-04-26T22:29:00.904992</EPOCH><MEAN_MOTION>14.35554185</MEAN_MOTION><ECCENTRICITY>.0001421</ECCENTRICITY><INCLINATION>45.0050</INCLINATION><RA_OF_ASC_NODE>77.4076</RA_OF_ASC_NODE><ARG_OF_PERICENTER>318.7298</ARG_OF_PERICENTER><MEAN_ANOMALY>41.3442</MEAN_ANOMALY></meanElements><tleParameters><EPHEMERIS_TYPE>0</EPHEMERIS_TYPE><CLASSIFICATION_TYPE>U</CLASSIFICATION_TYPE><NORAD_CAT_ID>25481</NORAD_CAT_ID><ELEMENT_SET_NO>999</ELEMENT_SET_NO><REV_AT_EPOCH>33780</REV_AT_EPOCH><BSTAR>.13983E-2</BSTAR><MEAN_MOTION_DOT>.3924E-4</MEAN_MOTION_DOT><MEAN_MOTION_DDOT>0</MEAN_MOTION_DDOT></tleParameters></data></segment></body></omm>
<omm id="CCSDS_OMM_VERS" version="2.0">
<header><CREATION_DATE/><ORIGINATOR/></header><body><segment><metadata><OBJECT_NAME>ORBCOMM FM28</OBJECT_NAME><OBJECT_ID>1998-053H</OBJECT_ID><CENTER_NAME>EARTH</CENTER_NAME><REF_FRAME>TEME</REF_FRAME><TIME_SYSTEM>UTC</TIME_SYSTEM><MEAN_ELEMENT_THEORY>SGP4</MEAN_ELEMENT_THEORY></metadata><data><meanElements><EPOCH>2024-04-26T10:34:18.159744</EPOCH><MEAN_MOTION>14.35994014</MEAN_MOTION><ECCENTRICITY>.0004606</ECCENTRICITY><INCLINATION>45.0071</INCLINATION><RA_OF_ASC_NODE>18.2663</RA_OF_ASC_NODE><ARG_OF_PERICENTER>6.8021</ARG_OF_PERICENTER><MEAN_ANOMALY>353.2888</MEAN_ANOMALY></meanElements><tleParameters><EPHEMERIS_TYPE>0</EPHEMERIS_TYPE><CLASSIFICATION_TYPE>U</CLASSIFICATION_TYPE><NORAD_CAT_ID>25482</NORAD_CAT_ID><ELEMENT_SET_NO>999</ELEMENT_SET_NO><REV_AT_EPOCH>33840</REV_AT_EPOCH><BSTAR>.10775E-2</BSTAR><MEAN_MOTION_DOT>.3019E-4</MEAN_MOTION_DOT><MEAN_MOTION_DDOT>0</MEAN_MOTION_DDOT></tleParameters></data></segment></body></omm>
<omm id="CCSDS_OMM_VERS" version="2.0">
<header><CREATION_DATE/><ORIGINATOR/></header><body><segment><metadata><OBJECT_NAME>ORBCOMM FM30</OBJECT_NAME><OBJECT_ID>1999-065A</OBJECT_ID><CENTER_NAME>EARTH</CENTER_NAME><REF_FRAME>TEME</REF_FRAME><TIME_SYSTEM>UTC</TIME_SYSTEM><MEAN_ELEMENT_THEORY>SGP4</MEAN_ELEMENT_THEORY></metadata><data><meanElements><EPOCH>2024-04-27T02:55:57.530496</EPOCH><MEAN_MOTION>14.35172516</MEAN_MOTION><ECCENTRICITY>.0005263</ECCENTRICITY><INCLINATION>45.0307</INCLINATION><RA_OF_ASC_NODE>255.8470</RA_OF_ASC_NODE><ARG_OF_PERICENTER>96.1528</ARG_OF_PERICENTER><MEAN_ANOMALY>263.9919</MEAN_ANOMALY></meanElements><tleParameters><EPHEMERIS_TYPE>0</EPHEMERIS_TYPE><CLASSIFICATION_TYPE>U</CLASSIFICATION_TYPE><NORAD_CAT_ID>25980</NORAD_CAT_ID><ELEMENT_SET_NO>999</ELEMENT_SET_NO><REV_AT_EPOCH>27516</REV_AT_EPOCH><BSTAR>.12757E-2</BSTAR><MEAN_MOTION_DOT>.3539E-4</MEAN_MOTION_DOT><MEAN_MOTION_DDOT>0</MEAN_MOTION_DDOT></tleParameters></data></segment></body></omm>
<omm id="CCSDS_OMM_VERS" version="2.0">
<header><CREATION_DATE/><ORIGINATOR/></header><body><segment><metadata><OBJECT_NAME>ORBCOMM FM31</OBJECT_NAME><OBJECT_ID>1999-065B</OBJECT_ID><CENTER_NAME>EARTH</CENTER_NAME><REF_FRAME>TEME</REF_FRAME><TIME_SYSTEM>UTC</TIME_SYSTEM><MEAN_ELEMENT_THEORY>SGP4</MEAN_ELEMENT_THEORY></metadata><data><meanElements><EPOCH>2024-04-26T16:04:54.694272</EPOCH><MEAN_MOTION>14.35169579</MEAN_MOTION><ECCENTRICITY>.0003094</ECCENTRICITY><INCLINATION>45.0221</INCLINATION><RA_OF_ASC_NODE>251.6814</RA_OF_ASC_NODE><ARG_OF_PERICENTER>131.9545</ARG_OF_PERICENTER><MEAN_ANOMALY>228.1567</MEAN_ANOMALY></meanElements><tleParameters><EPHEMERIS_TYPE>0</EPHEMERIS_TYPE><CLASSIFICATION_TYPE>U</CLASSIFICATION_TYPE><NORAD_CAT_ID>25981</NORAD_CAT_ID><ELEMENT_SET_NO>999</ELEMENT_SET_NO><REV_AT_EPOCH>27412</REV_AT_EPOCH><BSTAR>.10518E-2</BSTAR><MEAN_MOTION_DOT>.2893E-4</MEAN_MOTION_DOT><MEAN_MOTION_DDOT>0</MEAN_MOTION_DDOT></tleParameters></data></segment></body></omm>
<omm id="CCSDS_OMM_VERS" version="2.0">
<header><CREATION_DATE/><ORIGINATOR/></header><body><segment><metadata><OBJECT_NAME>ORBCOMM FM32</OBJECT_NAME><OBJECT_ID>1999-065C</OBJECT_ID><CENTER_NAME>EARTH</CENTER_NAME><REF_FRAME>TEME</REF_FRAME><TIME_SYSTEM>UTC</TIME_SYSTEM><MEAN_ELEMENT_THEORY>SGP4</MEAN_ELEMENT_THEORY></metadata><data><meanElements><EPOCH>2024-04-26T17:04:18.779808</EPOCH><MEAN_MOTION>14.34144461</MEAN_MOTION><ECCENTRICITY>.0005597</ECCENTRICITY><INCLINATION>45.0149</INCLINATION><RA_OF_ASC_NODE>265.1929</RA_OF_ASC_NODE><ARG_OF_PERICENTER>122.1818</ARG_OF_PERICENTER><MEAN_ANOMALY>237.9572</MEAN_ANOMALY></meanElements><tleParameters><EPHEMERIS_TYPE>0</EPHEMERIS_TYPE><CLASSIFICATION_TYPE>U</CLASSIFICATION_TYPE><NORAD_CAT_ID>25982</NORAD_CAT_ID><ELEMENT_SET_NO>999</ELEMENT_SET_NO><REV_AT_EPOCH>27476</REV_AT_EPOCH><BSTAR>.11443E-2</BSTAR><MEAN_MOTION_DOT>.3093E-4</MEAN_MOTION_DOT><MEAN_MOTION_DDOT>0</MEAN_MOTION_DDOT></tleParameters></data></segment></body></omm>

</ndm>
